{
  "type": "FeatureCollection",
  "features": [
    {
      "type": "Feature",
      "properties": {
        "norad_id": 31307,
        "name": "GALAXY 17 (G-17)",
        "group": "intelsat",
        "lat": -1.6460111365261465,
        "lon": -57.948684603582215,
        "alt_km": 35769.40284009062,
        "timestamp": "2025-12-27T19:21:58.441910+00:00",
        "meta_object_name": "GALAXY 17 (G-17)",
        "meta_object_id": "2007-016B",
        "meta_epoch": "2025-12-27T09:00:15.456096",
        "meta_mean_motion": 1.00271388,
        "meta_eccentricity": 0.0005653,
        "meta_inclination": 2.5348,
        "meta_ra_of_asc_node": 82.1173,
        "meta_arg_of_pericenter": 175.2392,
        "meta_mean_anomaly": 248.8273,
        "meta_ephemeris_type": 0,
        "meta_classification_type": "U",
        "meta_norad_cat_id": 31307,
        "meta_element_set_no": 999,
        "meta_rev_at_epoch": 6808,
        "meta_bstar": 0,
        "meta_mean_motion_dot": -1.85e-06,
        "meta_mean_motion_ddot": 0,
        "tle_line1": "1 31307U 07016B   25361.37517889 -.00000185  00000+0  00000+0 0  9996",
        "tle_line2": "2 31307   2.5348  82.1173 0005653 175.2392 248.8273  1.00271388 68084"
      },
      "geometry": {
        "type": "Point",
        "coordinates": [
          -57.948684603582215,
          -1.6460111365261465
        ]
      }
    },
    {
      "type": "Feature",
      "properties": {
        "norad_id": 31862,
        "name": "DIRECTV 10",
        "group": "intelsat",
        "lat": -0.0002618929806405218,
        "lon": -75.83382065504505,
        "alt_km": 35801.9770220977,
        "timestamp": "2025-12-27T19:21:58.441921+00:00",
        "meta_object_name": "DIRECTV 10",
        "meta_object_id": "2007-032A",
        "meta_epoch": "2025-12-27T10:48:02.965248",
        "meta_mean_motion": 1.00240419,
        "meta_eccentricity": 0.0001678,
        "meta_inclination": 0.0193,
        "meta_ra_of_asc_node": 182.9254,
        "meta_arg_of_pericenter": 278.2251,
        "meta_mean_anomaly": 54.2314,
        "meta_ephemeris_type": 0,
        "meta_classification_type": "U",
        "meta_norad_cat_id": 31862,
        "meta_element_set_no": 999,
        "meta_rev_at_epoch": 4387,
        "meta_bstar": 0,
        "meta_mean_motion_dot": -7.6e-07,
        "meta_mean_motion_ddot": 0,
        "tle_line1": "1 31862U 07032A   25361.45003432 -.00000076  00000+0  00000+0 0  9992",
        "tle_line2": "2 31862   0.0193 182.9254 0001678 278.2251  54.2314  1.00240419 43877"
      },
      "geometry": {
        "type": "Point",
        "coordinates": [
          -75.83382065504505,
          -0.0002618929806405218
        ]
      }
    },
    {
      "type": "Feature",
      "properties": {
        "norad_id": 32253,
        "name": "INTELSAT 11 (IS-11)",
        "group": "intelsat",
        "lat": 3.0044333467453566,
        "lon": -173.55657741664297,
        "alt_km": 36116.40050821358,
        "timestamp": "2025-12-27T19:21:58.441932+00:00",
        "meta_object_name": "INTELSAT 11 (IS-11)",
        "meta_object_id": "2007-044B",
        "meta_epoch": "2025-12-27T10:20:35.592864",
        "meta_mean_motion": 0.99052886,
        "meta_eccentricity": 0.0008682,
        "meta_inclination": 3.1165,
        "meta_ra_of_asc_node": 80.8097,
        "meta_arg_of_pericenter": 172.4291,
        "meta_mean_anomaly": 159.2123,
        "meta_ephemeris_type": 0,
        "meta_classification_type": "U",
        "meta_norad_cat_id": 32253,
        "meta_element_set_no": 999,
        "meta_rev_at_epoch": 6674,
        "meta_bstar": 0,
        "meta_mean_motion_dot": -2.34e-06,
        "meta_mean_motion_ddot": 0,
        "tle_line1": "1 32253U 07044B   25361.43096751 -.00000234  00000+0  00000+0 0  9990",
        "tle_line2": "2 32253   3.1165  80.8097 0008682 172.4291 159.2123  0.99052886 66748"
      },
      "geometry": {
        "type": "Point",
        "coordinates": [
          -173.55657741664297,
          3.0044333467453566
        ]
      }
    },
    {
      "type": "Feature",
      "properties": {
        "norad_id": 32388,
        "name": "HORIZONS-2",
        "group": "intelsat",
        "lat": -1.680161186629331,
        "lon": -46.777214298428405,
        "alt_km": 35769.819837358315,
        "timestamp": "2025-12-27T19:21:58.441942+00:00",
        "meta_object_name": "HORIZONS-2",
        "meta_object_id": "2007-063B",
        "meta_epoch": "2025-12-27T10:56:17.174976",
        "meta_mean_motion": 1.00272899,
        "meta_eccentricity": 0.0004679,
        "meta_inclination": 2.158,
        "meta_ra_of_asc_node": 82.798,
        "meta_arg_of_pericenter": 195.3609,
        "meta_mean_anomaly": 268.2883,
        "meta_ephemeris_type": 0,
        "meta_classification_type": "U",
        "meta_norad_cat_id": 32388,
        "meta_element_set_no": 999,
        "meta_rev_at_epoch": 6609,
        "meta_bstar": 0,
        "meta_mean_motion_dot": -2.32e-06,
        "meta_mean_motion_ddot": 0,
        "tle_line1": "1 32388U 07063B   25361.45575434 -.00000232  00000+0  00000+0 0  9990",
        "tle_line2": "2 32388   2.1580  82.7980 0004679 195.3609 268.2883  1.00272899 66091"
      },
      "geometry": {
        "type": "Point",
        "coordinates": [
          -46.777214298428405,
          -1.680161186629331
        ]
      }
    },
    {
      "type": "Feature",
      "properties": {
        "norad_id": 32729,
        "name": "DIRECTV 11",
        "group": "intelsat",
        "lat": -0.011692221566214054,
        "lon": -72.15864663127942,
        "alt_km": 35785.773277507535,
        "timestamp": "2025-12-27T19:21:58.441953+00:00",
        "meta_object_name": "DIRECTV 11",
        "meta_object_id": "2008-013A",
        "meta_epoch": "2025-12-27T09:06:20.204064",
        "meta_mean_motion": 1.00274985,
        "meta_eccentricity": 7.14e-05,
        "meta_inclination": 0.0328,
        "meta_ra_of_asc_node": 193.5554,
        "meta_arg_of_pericenter": 353.1899,
        "meta_mean_anomaly": 306.7597,
        "meta_ephemeris_type": 0,
        "meta_classification_type": "U",
        "meta_norad_cat_id": 32729,
        "meta_element_set_no": 999,
        "meta_rev_at_epoch": 4387,
        "meta_bstar": 0,
        "meta_mean_motion_dot": -1.04e-06,
        "meta_mean_motion_ddot": 0,
        "tle_line1": "1 32729U 08013A   25361.37940051 -.00000104  00000+0  00000+0 0  9995",
        "tle_line2": "2 32729   0.0328 193.5554 0000714 353.1899 306.7597  1.00274985 43875"
      },
      "geometry": {
        "type": "Point",
        "coordinates": [
          -72.15864663127942,
          -0.011692221566214054
        ]
      }
    },
    {
      "type": "Feature",
      "properties": {
        "norad_id": 32951,
        "name": "GALAXY 18 (G-18)",
        "group": "intelsat",
        "lat": -0.03818777182593274,
        "lon": -96.00361509621848,
        "alt_km": 35772.81659525874,
        "timestamp": "2025-12-27T19:21:58.441963+00:00",
        "meta_object_name": "GALAXY 18 (G-18)",
        "meta_object_id": "2008-024A",
        "meta_epoch": "2025-12-27T10:42:18.514368",
        "meta_mean_motion": 1.00271409,
        "meta_eccentricity": 0.0003384,
        "meta_inclination": 0.0202,
        "meta_ra_of_asc_node": 8.4916,
        "meta_arg_of_pericenter": 276.7397,
        "meta_mean_anomaly": 208.5148,
        "meta_ephemeris_type": 0,
        "meta_classification_type": "U",
        "meta_norad_cat_id": 32951,
        "meta_element_set_no": 999,
        "meta_rev_at_epoch": 4413,
        "meta_bstar": 0,
        "meta_mean_motion_dot": 0,
        "meta_mean_motion_ddot": 0,
        "tle_line1": "1 32951U 08024A   25361.44604762  .00000000  00000+0  00000+0 0  9992",
        "tle_line2": "2 32951   0.0202   8.4916 0003384 276.7397 208.5148  1.00271409 44137"
      },
      "geometry": {
        "type": "Point",
        "coordinates": [
          -96.00361509621848,
          -0.03818777182593274
        ]
      }
    },
    {
      "type": "Feature",
      "properties": {
        "norad_id": 33153,
        "name": "INTELSAT 25 (IS-25)",
        "group": "intelsat",
        "lat": -2.266161977419834,
        "lon": -4.416307905129691,
        "alt_km": 35783.432569188626,
        "timestamp": "2025-12-27T19:21:58.441974+00:00",
        "meta_object_name": "INTELSAT 25 (IS-25)",
        "meta_object_id": "2008-034A",
        "meta_epoch": "2025-12-27T11:08:23.517312",
        "meta_mean_motion": 1.00270989,
        "meta_eccentricity": 0.0005046,
        "meta_inclination": 2.2637,
        "meta_ra_of_asc_node": 82.4859,
        "meta_arg_of_pericenter": 191.6707,
        "meta_mean_anomaly": 317.6398,
        "meta_ephemeris_type": 0,
        "meta_classification_type": "U",
        "meta_norad_cat_id": 33153,
        "meta_element_set_no": 999,
        "meta_rev_at_epoch": 6397,
        "meta_bstar": 0,
        "meta_mean_motion_dot": -2.02e-06,
        "meta_mean_motion_ddot": 0,
        "tle_line1": "1 33153U 08034A   25361.46416108 -.00000202  00000+0  00000+0 0  9990",
        "tle_line2": "2 33153   2.2637  82.4859 0005046 191.6707 317.6398  1.00270989 63977"
      },
      "geometry": {
        "type": "Point",
        "coordinates": [
          -4.416307905129691,
          -2.266161977419834
        ]
      }
    }
  ]
}